start=new Date('2022-07-15T00:00:00.000Z').valueOf();
sats=[{"DECAY_DATE":null,"MEAN_ANOMALY":"263.1102","NORAD_CAT_ID":"45371","SITE":"AFETR","MEAN_ELEMENT_THEORY":"SGP4","PERIOD":"95.593","ARG_OF_PERICENTER":"97.0042","FILE":"3513976","RA_OF_ASC_NODE":"34.6887","ECCENTRICITY":"0.00013710","BSTAR":"-0.00004993200000","LAUNCH_DATE":"2020-03-18","TIME_SYSTEM":"UTC","REV_AT_EPOCH":"12868","ELEMENT_SET_NO":"999","MEAN_MOTION":"15.06389635","CLASSIFICATION_TYPE":"U","TLE_LINE2":"2 45371  53.0565  34.6887 0001371  97.0042 263.1102 15.06389635128682","APOAPSIS":"548.195","EPOCH":"2022-07-14T19:08:31.741440","OBJECT_ID":"2020-019M","REF_FRAME":"TEME","OBJECT_TYPE":"PAYLOAD","EPHEMERIS_TYPE":"0","TLE_LINE1":"1 45371U 20019M   22195.79758960 -.00001025  00000-0 -49932-4 0  9993","CENTER_NAME":"EARTH","GP_ID":"208132632","COUNTRY_CODE":"US","RCS_SIZE":"LARGE","MEAN_MOTION_DDOT":"0.0000000000000","SEMIMAJOR_AXIS":"6925.380","INCLINATION":"53.0565","PERIAPSIS":"546.296","OBJECT_NAME":"STARLINK-1287","MEAN_MOTION_DOT":"-0.00001025"},{"ECCENTRICITY":"0.00015560","RA_OF_ASC_NODE":"34.6249","TIME_SYSTEM":"UTC","LAUNCH_DATE":"2020-03-18","BSTAR":"-0.00018352000000","MEAN_ANOMALY":"294.6527","DECAY_DATE":null,"ARG_OF_PERICENTER":"65.4624","FILE":"3513976","SITE":"AFETR","MEAN_ELEMENT_THEORY":"SGP4","NORAD_CAT_ID":"45372","PERIOD":"95.593","MEAN_MOTION_DDOT":"0.0000000000000","COUNTRY_CODE":"US","RCS_SIZE":"LARGE","GP_ID":"208131386","MEAN_MOTION_DOT":"-0.00003013","OBJECT_NAME":"STARLINK-1288","PERIAPSIS":"546.169","INCLINATION":"53.0533","SEMIMAJOR_AXIS":"6925.382","APOAPSIS":"548.324","ELEMENT_SET_NO":"999","MEAN_MOTION":"15.06389179","CLASSIFICATION_TYPE":"U","TLE_LINE2":"2 45372  53.0533  34.6249 0001556  65.4624 294.6527 15.06389179128683","REV_AT_EPOCH":"12868","OBJECT_TYPE":"PAYLOAD","CENTER_NAME":"EARTH","TLE_LINE1":"1 45372U 20019N   22195.81328961 -.00003013  00000-0 -18352-3 0  9991","EPHEMERIS_TYPE":"0","REF_FRAME":"TEME","OBJECT_ID":"2020-019N","EPOCH":"2022-07-14T19:31:08.222304"},{"MEAN_ANOMALY":"277.3999","DECAY_DATE":null,"FILE":"3513976","ARG_OF_PERICENTER":"82.7157","PERIOD":"95.592","MEAN_ELEMENT_THEORY":"SGP4","SITE":"AFETR","NORAD_CAT_ID":"45373","ECCENTRICITY":"0.00014670","RA_OF_ASC_NODE":"34.6993","LAUNCH_DATE":"2020-03-18","TIME_SYSTEM":"UTC","BSTAR":"-0.00002148700000","APOAPSIS":"548.242","REV_AT_EPOCH":"12868","CLASSIFICATION_TYPE":"U","TLE_LINE2":"2 45373  53.0559  34.6993 0001467  82.7157 277.3999 15.06395859128685","MEAN_MOTION":"15.06395859","ELEMENT_SET_NO":"999","REF_FRAME":"TEME","EPHEMERIS_TYPE":"0","TLE_LINE1":"1 45373U 20019P   22195.79484862 -.00000601  00000-0 -21487-4 0  9996","CENTER_NAME":"EARTH","OBJECT_TYPE":"PAYLOAD","EPOCH":"2022-07-14T19:04:34.920768","OBJECT_ID":"2020-019P","MEAN_MOTION_DDOT":"0.0000000000000","GP_ID":"208131637","RCS_SIZE":"LARGE","COUNTRY_CODE":"US","PERIAPSIS":"546.210","OBJECT_NAME":"STARLINK-1295","INCLINATION":"53.0559","MEAN_MOTION_DOT":"-0.00000601","SEMIMAJOR_AXIS":"6925.361"},{"BSTAR":"-0.00013993000000","TIME_SYSTEM":"UTC","LAUNCH_DATE":"2020-03-18","RA_OF_ASC_NODE":"34.4234","ECCENTRICITY":"0.00012530","PERIOD":"95.593","NORAD_CAT_ID":"45374","SITE":"AFETR","MEAN_ELEMENT_THEORY":"SGP4","ARG_OF_PERICENTER":"90.0127","FILE":"3513976","DECAY_DATE":null,"MEAN_ANOMALY":"270.1005","SEMIMAJOR_AXIS":"6925.379","MEAN_MOTION_DOT":"-0.00002364","OBJECT_NAME":"STARLINK-1300","PERIAPSIS":"546.376","INCLINATION":"53.0562","RCS_SIZE":"LARGE","COUNTRY_CODE":"US","GP_ID":"208132387","MEAN_MOTION_DDOT":"0.0000000000000","OBJECT_ID":"2020-019Q","EPOCH":"2022-07-14T20:34:49.588032","EPHEMERIS_TYPE":"0","TLE_LINE1":"1 45374U 20019Q   22195.85751838 -.00002364  00000-0 -13993-3 0  9994","CENTER_NAME":"EARTH","OBJECT_TYPE":"PAYLOAD","REF_FRAME":"TEME","CLASSIFICATION_TYPE":"U","TLE_LINE2":"2 45374  53.0562  34.4234 0001253  90.0127 270.1005 15.06390124128698","MEAN_MOTION":"15.06390124","ELEMENT_SET_NO":"999","REV_AT_EPOCH":"12869","APOAPSIS":"548.112"},{"MEAN_ANOMALY":"281.2994","DECAY_DATE":null,"FILE":"3513976","ARG_OF_PERICENTER":"78.8156","SITE":"AFETR","NORAD_CAT_ID":"45375","MEAN_ELEMENT_THEORY":"SGP4","PERIOD":"95.593","RA_OF_ASC_NODE":"34.6478","ECCENTRICITY":"0.00014380","LAUNCH_DATE":"2020-03-18","TIME_SYSTEM":"UTC","BSTAR":"-0.00011339000000","APOAPSIS":"548.248","REV_AT_EPOCH":"12868","MEAN_MOTION":"15.06387337","ELEMENT_SET_NO":"999","CLASSIFICATION_TYPE":"U","TLE_LINE2":"2 45375  53.0550  34.6478 0001438  78.8156 281.2994 15.06387337128680","REF_FRAME":"TEME","OBJECT_TYPE":"PAYLOAD","TLE_LINE1":"1 45375U 20019R   22195.80591420 -.00001969  00000-0 -11339-3 0  9991","EPHEMERIS_TYPE":"0","CENTER_NAME":"EARTH","EPOCH":"2022-07-14T19:20:30.986880","OBJECT_ID":"2020-019R","MEAN_MOTION_DDOT":"0.0000000000000","GP_ID":"208133133","COUNTRY_CODE":"US","RCS_SIZE":"LARGE","PERIAPSIS":"546.256","OBJECT_NAME":"STARLINK-1302","INCLINATION":"53.0550","MEAN_MOTION_DOT":"-0.00001969","SEMIMAJOR_AXIS":"6925.387"},{"BSTAR":"-0.00019725000000","LAUNCH_DATE":"2020-03-18","TIME_SYSTEM":"UTC","ECCENTRICITY":"0.00016310","RA_OF_ASC_NODE":"34.5744","PERIOD":"95.593","SITE":"AFETR","NORAD_CAT_ID":"45376","MEAN_ELEMENT_THEORY":"SGP4","ARG_OF_PERICENTER":"101.3380","FILE":"3513976","DECAY_DATE":null,"MEAN_ANOMALY":"258.7792","SEMIMAJOR_AXIS":"6925.402","OBJECT_NAME":"STARLINK-1304","PERIAPSIS":"546.137","INCLINATION":"53.0554","MEAN_MOTION_DOT":"-0.00003217","GP_ID":"208131887","COUNTRY_CODE":"US","RCS_SIZE":"LARGE","MEAN_MOTION_DDOT":"0.0000000000000","EPOCH":"2022-07-14T19:47:03.247296","OBJECT_ID":"2020-019S","REF_FRAME":"TEME","CENTER_NAME":"EARTH","TLE_LINE1":"1 45376U 20019S   22195.82434314 -.00003217  00000-0 -19725-3 0  9997","EPHEMERIS_TYPE":"0","OBJECT_TYPE":"PAYLOAD","REV_AT_EPOCH":"12868","CLASSIFICATION_TYPE":"U","TLE_LINE2":"2 45376  53.0554  34.5744 0001631 101.3380 258.7792 15.06382635128687","ELEMENT_SET_NO":"999","MEAN_MOTION":"15.06382635","APOAPSIS":"548.396"},{"REF_FRAME":"TEME","OBJECT_TYPE":"PAYLOAD","TLE_LINE1":"1 45377U 20019T   22195.85014553 -.00002459  00000-0 -14629-3 0  9995","CENTER_NAME":"EARTH","EPHEMERIS_TYPE":"0","EPOCH":"2022-07-14T20:24:12.573792","OBJECT_ID":"2020-019T","APOAPSIS":"548.210","REV_AT_EPOCH":"12869","MEAN_MOTION":"15.06389354","ELEMENT_SET_NO":"999","TLE_LINE2":"2 45377  53.0557  34.4465 0001392  86.4831 273.6318 15.06389354128694","CLASSIFICATION_TYPE":"U","INCLINATION":"53.0557","PERIAPSIS":"546.282","OBJECT_NAME":"STARLINK-1305","MEAN_MOTION_DOT":"-0.00002459","SEMIMAJOR_AXIS":"6925.381","MEAN_MOTION_DDOT":"0.0000000000000","GP_ID":"208132138","RCS_SIZE":"LARGE","COUNTRY_CODE":"US","FILE":"3513976","ARG_OF_PERICENTER":"86.4831","MEAN_ELEMENT_THEORY":"SGP4","SITE":"AFETR","NORAD_CAT_ID":"45377","PERIOD":"95.593","MEAN_ANOMALY":"273.6318","DECAY_DATE":null,"LAUNCH_DATE":"2020-03-18","TIME_SYSTEM":"UTC","BSTAR":"-0.00014629000000","ECCENTRICITY":"0.00013920","RA_OF_ASC_NODE":"34.4465"},{"GP_ID":"208132887","COUNTRY_CODE":"US","RCS_SIZE":"LARGE","MEAN_MOTION_DDOT":"0.0000000000000","SEMIMAJOR_AXIS":"6925.357","INCLINATION":"53.0551","PERIAPSIS":"546.203","OBJECT_NAME":"STARLINK-1310","MEAN_MOTION_DOT":"0.00000282","REV_AT_EPOCH":"12869","MEAN_MOTION":"15.06397186","ELEMENT_SET_NO":"999","CLASSIFICATION_TYPE":"U","TLE_LINE2":"2 45378  53.0551  34.4998 0001471  82.1264 277.9892 15.06397186128697","APOAPSIS":"548.241","EPOCH":"2022-07-14T20:08:15.819936","OBJECT_ID":"2020-019U","REF_FRAME":"TEME","OBJECT_TYPE":"PAYLOAD","CENTER_NAME":"EARTH","TLE_LINE1":"1 45378U 20019U   22195.83907199  .00000282  00000-0  37830-4 0  9991","EPHEMERIS_TYPE":"0","RA_OF_ASC_NODE":"34.4998","ECCENTRICITY":"0.00014710","BSTAR":"0.00003783000000","LAUNCH_DATE":"2020-03-18","TIME_SYSTEM":"UTC","DECAY_DATE":null,"MEAN_ANOMALY":"277.9892","SITE":"AFETR","NORAD_CAT_ID":"45378","MEAN_ELEMENT_THEORY":"SGP4","PERIOD":"95.592","FILE":"3513976","ARG_OF_PERICENTER":"82.1264"},{"SEMIMAJOR_AXIS":"6925.371","MEAN_MOTION_DOT":"-0.00001488","OBJECT_NAME":"STARLINK-1319","PERIAPSIS":"546.241","INCLINATION":"53.0546","COUNTRY_CODE":"US","RCS_SIZE":"LARGE","GP_ID":"208109697","MEAN_MOTION_DDOT":"0.0000000000000","OBJECT_ID":"2020-019V","EPOCH":"2022-07-14T20:13:35.080896","TLE_LINE1":"1 45379U 20019V   22195.84276714 -.00001488  00000-0 -81006-4 0  9990","CENTER_NAME":"EARTH","EPHEMERIS_TYPE":"0","OBJECT_TYPE":"PAYLOAD","REF_FRAME":"TEME","CLASSIFICATION_TYPE":"U","TLE_LINE2":"2 45379  53.0546  34.4851 0001437  90.1958 269.9196 15.06392627128694","MEAN_MOTION":"15.06392627","ELEMENT_SET_NO":"999","REV_AT_EPOCH":"12869","APOAPSIS":"548.231","BSTAR":"-0.00008100600000","TIME_SYSTEM":"UTC","LAUNCH_DATE":"2020-03-18","ECCENTRICITY":"0.00014370","RA_OF_ASC_NODE":"34.4851","PERIOD":"95.593","SITE":"AFETR","MEAN_ELEMENT_THEORY":"SGP4","NORAD_CAT_ID":"45379","FILE":"3513830","ARG_OF_PERICENTER":"90.1958","DECAY_DATE":null,"MEAN_ANOMALY":"269.9196"},{"OBJECT_ID":"2020-019W","EPOCH":"2022-07-14T18:35:22.860960","OBJECT_TYPE":"PAYLOAD","CENTER_NAME":"EARTH","TLE_LINE1":"1 45380U 20019W   22195.77457015  .00000952  00000-0  82804-4 0  9999","EPHEMERIS_TYPE":"0","REF_FRAME":"TEME","MEAN_MOTION":"15.06407736","ELEMENT_SET_NO":"999","TLE_LINE2":"2 45380  53.0563  14.7961 0001317  89.6348 270.4792 15.06407736128957","CLASSIFICATION_TYPE":"U","REV_AT_EPOCH":"12895","APOAPSIS":"548.102","SEMIMAJOR_AXIS":"6925.325","MEAN_MOTION_DOT":"0.00000952","INCLINATION":"53.0563","PERIAPSIS":"546.278","OBJECT_NAME":"STARLINK-1207","RCS_SIZE":"LARGE","COUNTRY_CODE":"US","GP_ID":"208131387","MEAN_MOTION_DDOT":"0.0000000000000","NORAD_CAT_ID":"45380","SITE":"AFETR","MEAN_ELEMENT_THEORY":"SGP4","PERIOD":"95.592","FILE":"3513976","ARG_OF_PERICENTER":"89.6348","DECAY_DATE":null,"MEAN_ANOMALY":"270.4792","BSTAR":"0.00008280400000","TIME_SYSTEM":"UTC","LAUNCH_DATE":"2020-03-18","RA_OF_ASC_NODE":"14.7961","ECCENTRICITY":"0.00013170"}];
